QIANFAN-17              
1 60395U 24140S   25197.86324645  .00000114  00000+0  15893-3 0  9990
2 60395  88.9855 314.7908 0012934 275.2074  84.7601 13.50957213 47188
QIANFAN-18              
1 60396U 24140T   25197.91679702  .00000114  00000+0  15816-3 0  9999
2 60396  88.9847 314.3305 0012439 254.8511 105.1264 13.50952762 47431
QIANFAN-19              
1 61552U 24185A   25197.85396410  .00000290  00000+0  14501-3 0  9993
2 61552  88.9828  95.0181 0009506  68.2073 292.0125 14.14102953 48625
QIANFAN-20              
1 61553U 24185B   25197.87920022  .00000239  00000+0  13096-3 0  9999
2 61553  88.9827  95.1886 0008591  93.9348 266.2817 14.08656882 48530
QIANFAN-21              
1 61554U 24185C   25197.89920604  .00000418  00000+0  18136-3 0  9997
2 61554  88.9741  94.4294 0012588 119.2755 240.9696 14.22343780 48817
QIANFAN-22              
1 61555U 24185D   25197.88089461  .00000135  00000+0  10545-3 0  9996
2 61555  88.9813  95.5707 0009097  87.5771 272.6441 13.86229701 48315
QIANFAN-23              
1 61556U 24185E   25197.89663760  .00000369  00000+0  17984-3 0  9991
2 61556  88.9820  94.8918 0010402  77.2833 282.9517 14.16071550 48686
QIANFAN-24              
1 61557U 24185F   25197.88704413  .00000493  00000+0  21038-3 0  9995
2 61557  88.9800  94.5417 0011973  67.1360 293.1095 14.23545881 48847
